*******************************************************************************
Ephemeris / WWW_USER Mon Jul 15 19:25:45 2024 Pasadena, USA      / Horizons    
*******************************************************************************
Target body name: (2018 RA1)                      {source: JPL#6}
Center body name: Earth (399)                     {source: DE441}
Center-site name: Gemini South Obs., Cerro Pachon
*******************************************************************************
Start time      : A.D. 2019-Jan-20 23:56:00.0000 UT      
Stop  time      : A.D. 2019-Jan-21 09:52:00.0000 UT      
Step-size       : 1 minutes
*******************************************************************************
Target pole/equ : undefined
Target radii    : undefined                                                    
Center geodetic : 289.2634, -30.2406227, 2.71233  {E-lon(deg),Lat(deg),Alt(km)}
Center cylindric: 289.2634,5517.21435,-3194.81213 {E-lon(deg),Dxy(km),Dz(km)}
Center pole/equ : ITRF93                          {East-longitude positive}
Center radii    : 6378.137, 6378.137, 6356.752 km {Equator_a, b, pole_c}       
Target primary  : Sun
Vis. interferer : MOON (R_eq= 1737.400) km        {source: DE441}
Rel. light bend : Sun                             {source: DE441}
Rel. lght bnd GM: 1.3271E+11 km^3/s^2                                          
Small-body perts: Yes                             {source: SB441-N16}
Atmos refraction: NO (AIRLESS)
RA format       : HMS
Time format     : CAL 
Calendar mode   : Mixed Julian/Gregorian
RTS-only print  : NO       
EOP file        : eop.240715.p241008                                           
EOP coverage    : DATA-BASED 1962-JAN-20 TO 2024-JUL-15. PREDICTS-> 2024-OCT-07
Units conversion: 1 au= 149597870.700 km, c= 299792.458 km/s, 1 day= 86400.0 s 
Table cut-offs 1: Elevation (-90.0deg=NO ),Airmass (>38.000=NO), Daylight (YES)
Table cut-offs 2: Solar elongation (  0.0,180.0=NO ),Local Hour Angle( 0.0=NO )
Table cut-offs 3: RA/DEC angular rate (     0.0=NO )                           
*******************************************************************************
Initial IAU76/J2000 heliocentric ecliptic osculating elements (au, days, deg.):
  EPOCH=  2458369.5 ! 2018-Sep-08.00 (TDB)         Residual RMS= .21275        
   EC= .3232115344739424   QR= .7703453101153647   TP= 2458436.6763547547      
   OM= 166.2054176892707   W=  269.7217787981747   IN= 8.763099478405824       
  Equivalent ICRF heliocentric cartesian coordinates (au, au/d):
   X= 9.899686155013647E-01  Y=-2.468208982240139E-01  Z=-1.030323866474361E-01
  VX=-9.411283005844916E-04 VY= 1.717513364149167E-02 VZ= 4.613440841260365E-03
Asteroid physical parameters (km, seconds, rotational period in hours):        
   GM= n.a.                RAD= n.a.               ROTPER= n.a.                
   H= 26.4                 G= .150                 B-V= n.a.                   
                           ALBEDO= n.a.            STYP= n.a.                  
*******************************************************************************
 Date__(UT)__HR:MN     R.A._________(ICRF)_________DEC
******************************************************
$$SOE
 2019-Jan-20 23:56 Cm  15 12 49.906346 -17 42 11.15704
 2019-Jan-20 23:57 Cm  15 12 50.021831 -17 42 11.12905
 2019-Jan-20 23:58 Cm  15 12 50.137316 -17 42 11.10111
 2019-Jan-20 23:59 Cm  15 12 50.252801 -17 42 11.07322
 2019-Jan-21 00:00 Cm  15 12 50.368284 -17 42 11.04539
 2019-Jan-21 00:01 Cm  15 12 50.483767 -17 42 11.01760
 2019-Jan-21 00:02 Cm  15 12 50.599250 -17 42 10.98986
 2019-Jan-21 00:03 Cm  15 12 50.714731 -17 42 10.96217
 2019-Jan-21 00:04 Cm  15 12 50.830211 -17 42 10.93453
 2019-Jan-21 00:05 Cm  15 12 50.945691 -17 42 10.90695
 2019-Jan-21 00:06 Cm  15 12 51.061170 -17 42 10.87941
 2019-Jan-21 00:07 Cm  15 12 51.176647 -17 42 10.85192
 2019-Jan-21 00:08 Cm  15 12 51.292124 -17 42 10.82448
 2019-Jan-21 00:09 Cm  15 12 51.407599 -17 42 10.79709
 2019-Jan-21 00:10 Cm  15 12 51.523073 -17 42 10.76975
 2019-Jan-21 00:11 Cm  15 12 51.638546 -17 42 10.74247
 2019-Jan-21 00:12 Cm  15 12 51.754017 -17 42 10.71523
 2019-Jan-21 00:13 Cm  15 12 51.869488 -17 42 10.68804
 2019-Jan-21 00:14 Nm  15 12 51.984956 -17 42 10.66090
 2019-Jan-21 00:15 Nm  15 12 52.100423 -17 42 10.63381
 2019-Jan-21 00:16 Nm  15 12 52.215889 -17 42 10.60677
 2019-Jan-21 00:17 Nm  15 12 52.331353 -17 42 10.57978
 2019-Jan-21 00:18 Nm  15 12 52.446816 -17 42 10.55284
 2019-Jan-21 00:19 Nm  15 12 52.562276 -17 42 10.52595
 2019-Jan-21 00:20 Nm  15 12 52.677735 -17 42 10.49911
 2019-Jan-21 00:21 Nm  15 12 52.793192 -17 42 10.47232
 2019-Jan-21 00:22 Nm  15 12 52.908648 -17 42 10.44558
 2019-Jan-21 00:23 Nm  15 12 53.024101 -17 42 10.41889
 2019-Jan-21 00:24 Nm  15 12 53.139552 -17 42 10.39225
 2019-Jan-21 00:25 Nm  15 12 53.255002 -17 42 10.36566
 2019-Jan-21 00:26 Nm  15 12 53.370449 -17 42 10.33912
 2019-Jan-21 00:27 Nm  15 12 53.485894 -17 42 10.31263
 2019-Jan-21 00:28 Nm  15 12 53.601337 -17 42 10.28618
 2019-Jan-21 00:29 Nm  15 12 53.716778 -17 42 10.25979
 2019-Jan-21 00:30 Nm  15 12 53.832216 -17 42 10.23345
 2019-Jan-21 00:31 Nm  15 12 53.947652 -17 42 10.20715
 2019-Jan-21 00:32 Nm  15 12 54.063086 -17 42 10.18091
 2019-Jan-21 00:33 Nm  15 12 54.178517 -17 42 10.15471
 2019-Jan-21 00:34 Nm  15 12 54.293945 -17 42 10.12856
 2019-Jan-21 00:35 Nm  15 12 54.409371 -17 42 10.10247
 2019-Jan-21 00:36 Nm  15 12 54.524794 -17 42 10.07642
 2019-Jan-21 00:37 Nm  15 12 54.640215 -17 42 10.05042
 2019-Jan-21 00:38 Nm  15 12 54.755633 -17 42 10.02447
 2019-Jan-21 00:39 Nm  15 12 54.871048 -17 42 09.99857
 2019-Jan-21 00:40 Nm  15 12 54.986460 -17 42 09.97272
 2019-Jan-21 00:41 Nm  15 12 55.101870 -17 42 09.94691
 2019-Jan-21 00:42 Nm  15 12 55.217276 -17 42 09.92116
 2019-Jan-21 00:43 Nm  15 12 55.332679 -17 42 09.89546
 2019-Jan-21 00:44 Nm  15 12 55.448080 -17 42 09.86980
 2019-Jan-21 00:45 Nm  15 12 55.563477 -17 42 09.84419
 2019-Jan-21 00:46 Am  15 12 55.678871 -17 42 09.81863
 2019-Jan-21 00:47 Am  15 12 55.794261 -17 42 09.79313
 2019-Jan-21 00:48 Am  15 12 55.909649 -17 42 09.76766
 2019-Jan-21 00:49 Am  15 12 56.025033 -17 42 09.74225
 2019-Jan-21 00:50 Am  15 12 56.140414 -17 42 09.71689
 2019-Jan-21 00:51 Am  15 12 56.255791 -17 42 09.69157
 2019-Jan-21 00:52 Am  15 12 56.371165 -17 42 09.66631
 2019-Jan-21 00:53 Am  15 12 56.486535 -17 42 09.64109
 2019-Jan-21 00:54 Am  15 12 56.601901 -17 42 09.61592
 2019-Jan-21 00:55 Am  15 12 56.717264 -17 42 09.59079
 2019-Jan-21 00:56 Am  15 12 56.832623 -17 42 09.56572
 2019-Jan-21 00:57 Am  15 12 56.947979 -17 42 09.54069
 2019-Jan-21 00:58 Am  15 12 57.063330 -17 42 09.51572
 2019-Jan-21 00:59 Am  15 12 57.178678 -17 42 09.49079
 2019-Jan-21 01:00 Am  15 12 57.294022 -17 42 09.46591
 2019-Jan-21 01:01 Am  15 12 57.409362 -17 42 09.44107
 2019-Jan-21 01:02 Am  15 12 57.524697 -17 42 09.41628
 2019-Jan-21 01:03 Am  15 12 57.640029 -17 42 09.39155
 2019-Jan-21 01:04 Am  15 12 57.755357 -17 42 09.36686
 2019-Jan-21 01:05 Am  15 12 57.870680 -17 42 09.34221
 2019-Jan-21 01:06 Am  15 12 57.985999 -17 42 09.31762
 2019-Jan-21 01:07 Am  15 12 58.101314 -17 42 09.29307
 2019-Jan-21 01:08 Am  15 12 58.216624 -17 42 09.26857
 2019-Jan-21 01:09 Am  15 12 58.331930 -17 42 09.24411
 2019-Jan-21 01:10 Am  15 12 58.447232 -17 42 09.21971
 2019-Jan-21 01:11 Am  15 12 58.562529 -17 42 09.19535
 2019-Jan-21 01:12 Am  15 12 58.677821 -17 42 09.17104
 2019-Jan-21 01:13 Am  15 12 58.793109 -17 42 09.14677
 2019-Jan-21 01:14 Am  15 12 58.908392 -17 42 09.12255
 2019-Jan-21 01:15 Am  15 12 59.023671 -17 42 09.09838
 2019-Jan-21 01:16 Am  15 12 59.138944 -17 42 09.07425
 2019-Jan-21 01:17 Am  15 12 59.254213 -17 42 09.05018
 2019-Jan-21 01:18 Am  15 12 59.369477 -17 42 09.02614
 2019-Jan-21 01:19 Am  15 12 59.484736 -17 42 09.00216
 2019-Jan-21 01:20  m  15 12 59.599990 -17 42 08.97822
 2019-Jan-21 01:21  m  15 12 59.715240 -17 42 08.95433
 2019-Jan-21 01:22  m  15 12 59.830483 -17 42 08.93048
 2019-Jan-21 01:23  m  15 12 59.945722 -17 42 08.90668
 2019-Jan-21 01:24  m  15 13 00.060956 -17 42 08.88293
 2019-Jan-21 01:25  m  15 13 00.176184 -17 42 08.85922
 2019-Jan-21 01:26  m  15 13 00.291407 -17 42 08.83556
 2019-Jan-21 01:27  m  15 13 00.406625 -17 42 08.81194
 2019-Jan-21 01:28  m  15 13 00.521838 -17 42 08.78837
 2019-Jan-21 01:29  m  15 13 00.637044 -17 42 08.76484
 2019-Jan-21 01:30  m  15 13 00.752246 -17 42 08.74136
 2019-Jan-21 01:31  m  15 13 00.867442 -17 42 08.71793
 2019-Jan-21 01:32  m  15 13 00.982632 -17 42 08.69454
 2019-Jan-21 01:33  m  15 13 01.097817 -17 42 08.67120
 2019-Jan-21 01:34  m  15 13 01.212996 -17 42 08.64790
 2019-Jan-21 01:35  m  15 13 01.328169 -17 42 08.62464
 2019-Jan-21 01:36  m  15 13 01.443336 -17 42 08.60144
 2019-Jan-21 01:37  m  15 13 01.558498 -17 42 08.57827
 2019-Jan-21 01:38  m  15 13 01.673653 -17 42 08.55515
 2019-Jan-21 01:39  m  15 13 01.788803 -17 42 08.53208
 2019-Jan-21 01:40  m  15 13 01.903947 -17 42 08.50905
 2019-Jan-21 01:41  m  15 13 02.019084 -17 42 08.48606
 2019-Jan-21 01:42  m  15 13 02.134216 -17 42 08.46312
 2019-Jan-21 01:43  m  15 13 02.249341 -17 42 08.44022
 2019-Jan-21 01:44  m  15 13 02.364461 -17 42 08.41737
 2019-Jan-21 01:45  m  15 13 02.479574 -17 42 08.39456
 2019-Jan-21 01:46  m  15 13 02.594680 -17 42 08.37179
 2019-Jan-21 01:47  m  15 13 02.709781 -17 42 08.34907
 2019-Jan-21 01:48  m  15 13 02.824875 -17 42 08.32639
 2019-Jan-21 01:49  m  15 13 02.939962 -17 42 08.30376
 2019-Jan-21 01:50  m  15 13 03.055043 -17 42 08.28117
 2019-Jan-21 01:51  m  15 13 03.170118 -17 42 08.25862
 2019-Jan-21 01:52  m  15 13 03.285185 -17 42 08.23611
 2019-Jan-21 01:53  m  15 13 03.400247 -17 42 08.21365
 2019-Jan-21 01:54  m  15 13 03.515301 -17 42 08.19123
 2019-Jan-21 01:55  m  15 13 03.630349 -17 42 08.16885
 2019-Jan-21 01:56  m  15 13 03.745390 -17 42 08.14652
 2019-Jan-21 01:57  m  15 13 03.860424 -17 42 08.12423
 2019-Jan-21 01:58  m  15 13 03.975452 -17 42 08.10198
